ONEWEB-0300             
1 49089U 21075Q   25239.89582463 -.00000245  00000+0 -71570-3 0  9996
2 49089  87.8872  48.9332 0001994  84.5213 275.6143 13.12442676196737
ONEWEB-0301             
1 49090U 21075R   25240.48950151 -.00000207  00000+0 -61208-3 0  9993
2 49090  87.8869  48.8193 0002033  82.0466 278.0894 13.12441665196172
ONEWEB-0302             
1 49091U 21075S   25240.47653261  .00000104  00000+0  25302-3 0  9994
2 49091  87.8877  48.8272 0001461 102.6832 257.4460 13.12442009196151
ONEWEB-0304             
1 49092U 21075T   25240.51033773  .00000115  00000+0  26366-3 0  9993
2 49092  87.9029  64.0924 0001787  94.1763 265.9573 13.17648275195038
ONEWEB-0305             
1 49093U 21075U   25240.57953121  .00000137  00000+0  31896-3 0  9996
2 49093  87.9038  64.0549 0002016 101.4652 258.6706 13.17650833195071
ONEWEB-0308             
1 49094U 21075V   25240.47004497  .00000277  00000+0  73599-3 0  9990
2 49094  87.8874  48.8203 0001725  90.9842 269.1485 13.12440888196169
ONEWEB-0309             
1 49095U 21075W   25240.50695407  .00000124  00000+0  28553-3 0  9993
2 49095  87.9032  64.0869 0001371  99.2989 260.8297 13.17650518195038
ONEWEB-0310             
1 49096U 21075X   25240.48463393 -.00000142  00000+0 -42901-3 0  9993
2 49096  87.8871  48.8631 0001624  94.3805 265.7509 13.12441601196790
